[{"OBJECT_NAME":"FENGYUN 1C DEB","OBJECT_ID":"1999-025TS","EPOCH":"2026-03-07T10:47:49.480800","MEAN_MOTION":13.49985535,"ECCENTRICITY":0.0328525,"INCLINATION":100.513,"RA_OF_ASC_NODE":63.5639,"ARG_OF_PERICENTER":53.0989,"MEAN_ANOMALY":98.419,"EPHEMERIS_TYPE":0,"CLASSIFICATION_TYPE":"U","NORAD_CAT_ID":30161,"ELEMENT_SET_NO":999,"REV_AT_EPOCH":93702,"BSTAR":0.0029459847,"MEAN_MOTION_DOT":2.572e-5,"MEAN_MOTION_DDOT":0},{"OBJECT_NAME":"FENGYUN 1C DEB","OBJECT_ID":"1999-025TT","EPOCH":"2026-03-07T02:09:32.671872","MEAN_MOTION":13.53860491,"ECCENTRICITY":0.03174216,"INCLINATION":99.4792,"RA_OF_ASC_NODE":123.7918,"ARG_OF_PERICENTER":137.3581,"MEAN_ANOMALY":286.5681,"EPHEMERIS_TYPE":0,"CLASSIFICATION_TYPE":"U","NORAD_CAT_ID":30162,"ELEMENT_SET_NO":999,"REV_AT_EPOCH":93802,"BSTAR":0.0026084565,"MEAN_MOTION_DOT":2.39e-5,"MEAN_MOTION_DDOT":0},{"OBJECT_NAME":"FENGYUN 1C DEB","OBJECT_ID":"1999-025TU","EPOCH":"2026-03-07T06:20:19.314816","MEAN_MOTION":13.39042726,"ECCENTRICITY":0.0367424,"INCLINATION":98.6987,"RA_OF_ASC_NODE":174.4942,"ARG_OF_PERICENTER":20.0085,"MEAN_ANOMALY":31.8277,"EPHEMERIS_TYPE":0,"CLASSIFICATION_TYPE":"U","NORAD_CAT_ID":30163,"ELEMENT_SET_NO":999,"REV_AT_EPOCH":93076,"BSTAR":0.0015022,"MEAN_MOTION_DOT":1.158e-5,"MEAN_MOTION_DDOT":0},{"OBJECT_NAME":"FENGYUN 1C DEB","OBJECT_ID":"1999-025TY","EPOCH":"2026-03-06T16:42:38.274912","MEAN_MOTION":14.48857673,"ECCENTRICITY":0.01419175,"INCLINATION":98.9591,"RA_OF_ASC_NODE":161.0362,"ARG_OF_PERICENTER":262.9401,"MEAN_ANOMALY":260.3988,"EPHEMERIS_TYPE":0,"CLASSIFICATION_TYPE":"U","NORAD_CAT_ID":30167,"ELEMENT_SET_NO":999,"REV_AT_EPOCH":573,"BSTAR":0.00052418288,"MEAN_MOTION_DOT":2.194e-5,"MEAN_MOTION_DDOT":0},{"OBJECT_NAME":"FENGYUN 1C DEB","OBJECT_ID":"1999-025TZ","EPOCH":"2026-03-07T04:46:15.683232","MEAN_MOTION":14.54216497,"ECCENTRICITY":0.00966831,"INCLINATION":97.3772,"RA_OF_ASC_NODE":133.6307,"ARG_OF_PERICENTER":246.9274,"MEAN_ANOMALY":112.171,"EPHEMERIS_TYPE":0,"CLASSIFICATION_TYPE":"U","NORAD_CAT_ID":30168,"ELEMENT_SET_NO":999,"REV_AT_EPOCH":99538,"BSTAR":0.0016442228,"MEAN_MOTION_DOT":7.374e-5,"MEAN_MOTION_DDOT":0},{"OBJECT_NAME":"FENGYUN 1C DEB","OBJECT_ID":"1999-025UA","EPOCH":"2026-03-07T04:06:00.033408","MEAN_MOTION":14.60719437,"ECCENTRICITY":0.02039149,"INCLINATION":98.3231,"RA_OF_ASC_NODE":141.0462,"ARG_OF_PERICENTER":324.9756,"MEAN_ANOMALY":86.7258,"EPHEMERIS_TYPE":0,"CLASSIFICATION_TYPE":"U","NORAD_CAT_ID":30169,"ELEMENT_SET_NO":999,"REV_AT_EPOCH":98955,"BSTAR":0.0017480858,"MEAN_MOTION_DOT":0.00011399,"MEAN_MOTION_DDOT":0},{"OBJECT_NAME":"FENGYUN 1C DEB","OBJECT_ID":"1999-025UB","EPOCH":"2026-03-07T12:48:33.643008","MEAN_MOTION":14.00385996,"ECCENTRICITY":0.00805522,"INCLINATION":98.8513,"RA_OF_ASC_NODE":55.8556,"ARG_OF_PERICENTER":40.515,"MEAN_ANOMALY":82.0228,"EPHEMERIS_TYPE":0,"CLASSIFICATION_TYPE":"U","NORAD_CAT_ID":30170,"ELEMENT_SET_NO":999,"REV_AT_EPOCH":97602,"BSTAR":0.00048169821,"MEAN_MOTION_DOT":6.92e-6,"MEAN_MOTION_DDOT":0},{"OBJECT_NAME":"FENGYUN 1C DEB","OBJECT_ID":"1999-025UC","EPOCH":"2026-03-07T12:46:31.930464","MEAN_MOTION":13.96927982,"ECCENTRICITY":0.01858227,"INCLINATION":98.3933,"RA_OF_ASC_NODE":281.9609,"ARG_OF_PERICENTER":30.2705,"MEAN_ANOMALY":330.9039,"EPHEMERIS_TYPE":0,"CLASSIFICATION_TYPE":"U","NORAD_CAT_ID":30171,"ELEMENT_SET_NO":999,"REV_AT_EPOCH":97454,"BSTAR":0.00031842416,"MEAN_MOTION_DOT":4.75e-6,"MEAN_MOTION_DDOT":0},{"OBJECT_NAME":"FENGYUN 1C DEB","OBJECT_ID":"1999-025UD","EPOCH":"2026-03-07T12:35:24.102528","MEAN_MOTION":14.13049213,"ECCENTRICITY":0.00690032,"INCLINATION":99.2449,"RA_OF_ASC_NODE":53.2369,"ARG_OF_PERICENTER":326.0723,"MEAN_ANOMALY":161.4217,"EPHEMERIS_TYPE":0,"CLASSIFICATION_TYPE":"U","NORAD_CAT_ID":30172,"ELEMENT_SET_NO":999,"REV_AT_EPOCH":97714,"BSTAR":0.0024507174,"MEAN_MOTION_DOT":4.634e-5,"MEAN_MOTION_DDOT":0},{"OBJECT_NAME":"FENGYUN 1C DEB","OBJECT_ID":"1999-025UE","EPOCH":"2026-03-07T03:38:02.439168","MEAN_MOTION":14.1192193,"ECCENTRICITY":0.00804241,"INCLINATION":98.9665,"RA_OF_ASC_NODE":141.9209,"ARG_OF_PERICENTER":53.2185,"MEAN_ANOMALY":337.248,"EPHEMERIS_TYPE":0,"CLASSIFICATION_TYPE":"U","NORAD_CAT_ID":30173,"ELEMENT_SET_NO":999,"REV_AT_EPOCH":97740,"BSTAR":0.0012773896,"MEAN_MOTION_DOT":2.363e-5,"MEAN_MOTION_DDOT":0},{"OBJECT_NAME":"FENGYUN 1C DEB","OBJECT_ID":"1999-025UF","EPOCH":"2026-03-07T10:37:45.360768","MEAN_MOTION":14.89497985,"ECCENTRICITY":0.00154093,"INCLINATION":98.7766,"RA_OF_ASC_NODE":228.8007,"ARG_OF_PERICENTER":156.1117,"MEAN_ANOMALY":263.1441,"EPHEMERIS_TYPE":0,"CLASSIFICATION_TYPE":"U","NORAD_CAT_ID":30174,"ELEMENT_SET_NO":999,"REV_AT_EPOCH":99625,"BSTAR":0.0088473953,"MEAN_MOTION_DOT":0.00085391,"MEAN_MOTION_DDOT":0},{"OBJECT_NAME":"FENGYUN 1C DEB","OBJECT_ID":"1999-025UG","EPOCH":"2026-03-07T02:17:54.902976","MEAN_MOTION":13.83950611,"ECCENTRICITY":0.01452635,"INCLINATION":99.3665,"RA_OF_ASC_NODE":126.9554,"ARG_OF_PERICENTER":348.9477,"MEAN_ANOMALY":67.6952,"EPHEMERIS_TYPE":0,"CLASSIFICATION_TYPE":"U","NORAD_CAT_ID":30175,"ELEMENT_SET_NO":999,"REV_AT_EPOCH":96507,"BSTAR":0.00037496721,"MEAN_MOTION_DOT":4.06e-6,"MEAN_MOTION_DDOT":0},{"OBJECT_NAME":"FENGYUN 1C DEB","OBJECT_ID":"1999-025UJ","EPOCH":"2026-03-06T19:24:09.319680","MEAN_MOTION":13.63193311,"ECCENTRICITY":0.04487759,"INCLINATION":98.6337,"RA_OF_ASC_NODE":5.2077,"ARG_OF_PERICENTER":277.2252,"MEAN_ANOMALY":103.9478,"EPHEMERIS_TYPE":0,"CLASSIFICATION_TYPE":"U","NORAD_CAT_ID":30177,"ELEMENT_SET_NO":999,"REV_AT_EPOCH":94608,"BSTAR":0.0011669902,"MEAN_MOTION_DOT":1.772e-5,"MEAN_MOTION_DDOT":0},{"OBJECT_NAME":"FENGYUN 1C DEB","OBJECT_ID":"1999-025UK","EPOCH":"2026-03-07T16:05:39.573888","MEAN_MOTION":13.59049539,"ECCENTRICITY":0.02836938,"INCLINATION":102.2576,"RA_OF_ASC_NODE":326.1552,"ARG_OF_PERICENTER":294.1858,"MEAN_ANOMALY":91.5896,"EPHEMERIS_TYPE":0,"CLASSIFICATION_TYPE":"U","NORAD_CAT_ID":30178,"ELEMENT_SET_NO":999,"REV_AT_EPOCH":94325,"BSTAR":0.0021172009,"MEAN_MOTION_DOT":1.96e-5,"MEAN_MOTION_DDOT":0},{"OBJECT_NAME":"FENGYUN 1C DEB","OBJECT_ID":"1999-025UN","EPOCH":"2026-03-07T04:35:34.458720","MEAN_MOTION":14.29993953,"ECCENTRICITY":0.00422321,"INCLINATION":98.8343,"RA_OF_ASC_NODE":155.6456,"ARG_OF_PERICENTER":115.6219,"MEAN_ANOMALY":274.9514,"EPHEMERIS_TYPE":0,"CLASSIFICATION_TYPE":"U","NORAD_CAT_ID":30181,"ELEMENT_SET_NO":999,"REV_AT_EPOCH":98718,"BSTAR":0.0015784273,"MEAN_MOTION_DOT":4.068e-5,"MEAN_MOTION_DDOT":0},{"OBJECT_NAME":"FENGYUN 1C DEB","OBJECT_ID":"1999-025UP","EPOCH":"2026-03-06T14:19:32.593728","MEAN_MOTION":13.96497643,"ECCENTRICITY":0.00756013,"INCLINATION":99.0503,"RA_OF_ASC_NODE":120.269,"ARG_OF_PERICENTER":151.5091,"MEAN_ANOMALY":13.0547,"EPHEMERIS_TYPE":0,"CLASSIFICATION_TYPE":"U","NORAD_CAT_ID":30182,"ELEMENT_SET_NO":999,"REV_AT_EPOCH":97478,"BSTAR":0.00027747452,"MEAN_MOTION_DOT":3.49e-6,"MEAN_MOTION_DDOT":0}]
