FENGYUN 1C DEB          
1 30161U 99025TS  26066.44987825  .00002572  00000+0  29460-2 0  9991
2 30161 100.5130  63.5639 0328525  53.0989  98.4190 13.49985535937028
FENGYUN 1C DEB          
1 30162U 99025TT  26066.08996148  .00002390  00000+0  26085-2 0  9998
2 30162  99.4792 123.7918 0317421 137.3581 286.5681 13.53860491938029
FENGYUN 1C DEB          
1 30163U 99025TU  26066.26411244  .00001158  00000+0  15022-2 0  9998
2 30163  98.6987 174.4942 0367424  20.0085  31.8277 13.39042726930764
FENGYUN 1C DEB          
1 30167U 99025TY  26065.69627633  .00002194  00000+0  52418-3 0  9991
2 30167  98.9591 161.0362 0141917 262.9401 260.3988 14.48857673  5730
FENGYUN 1C DEB          
1 30168U 99025TZ  26066.19879263  .00007374  00000+0  16442-2 0  9997
2 30168  97.3772 133.6307 0096683 246.9274 112.1710 14.54216497995384
FENGYUN 1C DEB          
1 30169U 99025UA  26066.17083372  .00011399  00000+0  17481-2 0  9990
2 30169  98.3231 141.0462 0203914 324.9756  86.7258 14.60719437989554
FENGYUN 1C DEB          
1 30170U 99025UB  26066.53372272  .00000692  00000+0  48170-3 0  9996
2 30170  98.8513  55.8556 0080552  40.5150  82.0228 14.00385996976027
FENGYUN 1C DEB          
1 30171U 99025UC  26066.53231401  .00000475  00000+0  31842-3 0  9992
2 30171  98.3933 281.9609 0185822  30.2705 330.9039 13.96927982974549
FENGYUN 1C DEB          
1 30172U 99025UD  26066.52458452  .00004634  00000+0  24507-2 0  9999
2 30172  99.2449  53.2369 0069003 326.0723 161.4217 14.13049213977149
FENGYUN 1C DEB          
1 30173U 99025UE  26066.15141712  .00002363  00000+0  12774-2 0  9997
2 30173  98.9665 141.9209 0080424  53.2185 337.2480 14.11921930977402
FENGYUN 1C DEB          
1 30174U 99025UF  26066.44288612  .00085391  00000+0  88474-2 0  9993
2 30174  98.7766 228.8007 0015409 156.1117 263.1441 14.89497985996254
FENGYUN 1C DEB          
1 30175U 99025UG  26066.09577434  .00000406  00000+0  37497-3 0  9992
2 30175  99.3665 126.9554 0145263 348.9477  67.6952 13.83950611965070
FENGYUN 1C DEB          
1 30177U 99025UJ  26065.80844120  .00001772  00000+0  11670-2 0  9992
2 30177  98.6337   5.2077 0448775 277.2252 103.9478 13.63193311946089
FENGYUN 1C DEB          
1 30178U 99025UK  26066.67059692  .00001960  00000+0  21172-2 0  9998
2 30178 102.2576 326.1552 0283693 294.1858  91.5896 13.59049539943255
FENGYUN 1C DEB          
1 30181U 99025UN  26066.19137105  .00004068  00000+0  15784-2 0  9999
2 30181  98.8343 155.6456 0042232 115.6219 274.9514 14.29993953987189
FENGYUN 1C DEB          
1 30182U 99025UP  26065.59690502  .00000349  00000+0  27747-3 0  9999
2 30182  99.0503 120.2690 0075601 151.5091  13.0547 13.96497643974780
